NORAD_CAT_ID,OBJECT_NAME,OBJECT_TYPE,EPOCH,MEAN_MOTION,ECCENTRICITY,INCLINATION,RA_OF_ASC_NODE,ARG_OF_PERICENTER,MEAN_ANOMALY,BSTAR,MEAN_MOTION_DOT,MEAN_MOTION_DDOT,TLE_LINE0,TLE_LINE1,TLE_LINE2,SEMIMAJOR_AXIS,PERIOD,APOGEE,PERIGEE,DECAYED
52863.0,STARLINK-4270,PAYLOAD,2024-05-12 10:10:12,15.08830652,0.0001609,53.2176,135.106,82.3812,277.7363,-7.3052e-05,-1.45e-05,0.0,0 STARLINK-4270,1 52863U 22062AK  24133.42375116 -.00001450  00000-0 -73052-4 0  9991,2 52863  53.2176 135.1060 0001609  82.3812 277.7363 15.08830652105836,6917.909,95.438,540.887,538.661,0.0
52863.0,STARLINK-4270,PAYLOAD,2024-05-12 16:31:44,15.08822494,0.0001277,53.2167,133.9157,72.0251,288.088,-0.00018818,-3.28e-05,0.0,0 STARLINK-4270,1 52863U 22062AK  24133.68871505 -.00003280  00000-0 -18818-3 0  9993,2 52863  53.2167 133.9157 0001277  72.0251 288.0880 15.08822494105387,6917.934,95.439,540.682,538.915,0.0
52863.0,STARLINK-4270,PAYLOAD,2024-05-13 05:14:50,15.0882312,0.0001397,53.2163,131.537,76.342,283.7727,-7.0558e-05,-1.41e-05,0.0,0 STARLINK-4270,1 52863U 22062AK  24134.21864274 -.00001410  00000-0 -70558-4 0  9991,2 52863  53.2163 131.5370 0001397  76.3420 283.7727 15.08823120105954,6917.932,95.439,540.763,538.831,0.0
52863.0,STARLINK-4270,PAYLOAD,2024-05-13 06:50:13,15.08823169,0.0001394,53.2162,131.2398,75.7802,284.3345,-6.7482e-05,-1.361e-05,0.0,0 STARLINK-4270,1 52863U 22062AK  24134.28488328 -.00001361  00000-0 -67482-4 0  9997,2 52863  53.2162 131.2398 0001394  75.7802 284.3345 15.08823169105477,6917.932,95.439,540.761,538.832,0.0
52863.0,STARLINK-4270,PAYLOAD,2024-05-13 16:22:32,15.08829546,0.0001492,53.2167,129.4556,80.0982,280.0179,-5.5586e-05,-1.172e-05,0.0,0 STARLINK-4270,1 52863U 22062AK  24134.68232311 -.00001172  00000-0 -55586-4 0  9992,2 52863  53.2167 129.4556 0001492  80.0982 280.0179 15.08829546106029,6917.912,95.438,540.809,538.745,0.0
52863.0,STARLINK-4270,PAYLOAD,2024-05-14 06:41:01,15.08824003,0.0001531,53.2162,126.7788,74.574,285.5421,0.00019358,2.793e-05,0.0,0 STARLINK-4270,1 52863U 22062AK  24135.27848833  .00002793  00000-0  19358-3 0  9994,2 52863  53.2162 126.7788 0001531  74.5740 285.5421 15.08824003105623,6917.929,95.439,540.853,538.735,0.0
52863.0,STARLINK-4270,PAYLOAD,2024-05-15 04:56:24,15.08840742,0.0001549,53.2171,122.615,72.2423,287.8738,0.00020166,2.923e-05,0.0,0 STARLINK-4270,1 52863U 22062AK  24136.20584466  .00002923  00000-0  20166-3 0  9991,2 52863  53.2171 122.6150 0001549  72.2423 287.8738 15.08840742106257,6917.878,95.438,540.815,538.672,0.0
52863.0,STARLINK-4270,PAYLOAD,2024-05-15 09:42:35,15.08826772,0.0001434,53.2169,121.7243,75.6666,284.4485,9.8192e-05,1.275e-05,0.0,0 STARLINK-4270,1 52863U 22062AK  24136.40457680  .00001275  00000-0  98192-4 0  9994,2 52863  53.2169 121.7243 0001434  75.6666 284.4485 15.08826772106288,6917.921,95.438,540.778,538.794,0.0
52863.0,STARLINK-4270,PAYLOAD,2024-05-16 04:47:12,15.08841791,0.0001727,53.2173,118.1574,74.5413,285.5769,0.00013761,1.903e-05,0.0,0 STARLINK-4270,1 52863U 22062AK  24137.19945153  .00001903  00000-0  13761-3 0  9994,2 52863  53.2173 118.1574 0001727  74.5413 285.5769 15.08841791106402,6917.875,95.437,540.935,538.545,0.0
52863.0,STARLINK-4270,PAYLOAD,2024-05-16 06:22:35,15.08847485,0.0001672,53.2172,117.8602,80.8141,279.304,0.0001296,1.776e-05,0.0,0 STARLINK-4270,1 52863U 22062AK  24137.26568811  .00001776  00000-0  12960-3 0  9992,2 52863  53.2172 117.8602 0001672  80.8141 279.3040 15.08847485105921,6917.858,95.437,540.879,538.566,0.0
52863.0,STARLINK-4270,PAYLOAD,2024-05-16 15:54:53,15.08859741,0.00015,53.2172,116.0749,83.7206,276.3956,0.00028368,4.232e-05,0.0,0 STARLINK-4270,1 52863U 22062AK  24137.66311360  .00004232  00000-0  28368-3 0  9990,2 52863  53.2172 116.0749 0001500  83.7206 276.3956 15.08859741106470,6917.82,95.436,540.723,538.647,0.0
52863.0,STARLINK-4270,PAYLOAD,2024-05-17 04:37:58,15.08861163,0.0001353,53.2151,113.696,85.8411,274.2735,0.00050305,7.732e-05,0.0,0 STARLINK-4270,1 52863U 22062AK  24138.19303391  .00007732  00000-0  50305-3 0  9998,2 52863  53.2151 113.6960 0001353  85.8411 274.2735 15.08861163106554,6917.816,95.436,540.617,538.745,0.0
52863.0,STARLINK-4270,PAYLOAD,2024-05-17 15:45:39,15.08874927,0.0001402,53.2156,111.6144,88.2322,271.8831,0.00058835,9.097e-05,0.0,0 STARLINK-4270,1 52863U 22062AK  24138.65670250  .00009097  00000-0  58835-3 0  9992,2 52863  53.2156 111.6144 0001402  88.2322 271.8831 15.08874927106130,6917.774,95.435,540.609,538.669,0.0
52863.0,STARLINK-4270,PAYLOAD,2024-05-18 04:28:44,15.08844119,0.0001558,53.215,109.2318,110.9204,249.1955,-0.00029498,-4.98e-05,0.0,0 STARLINK-4270,1 52863U 22062AK  24139.18662444 -.00004980  00000-0 -29498-3 0  9998,2 52863  53.2150 109.2318 0001558 110.9204 249.1955 15.08844119106702,6917.868,95.437,540.811,538.655,0.0
52863.0,STARLINK-4270,PAYLOAD,2024-05-18 07:39:30,15.08846907,0.0001675,53.2155,108.6362,113.4341,246.6828,-0.00011569,-2.129e-05,0.0,0 STARLINK-4270,1 52863U 22062AK  24139.31910412 -.00002129  00000-0 -11569-3 0  9997,2 52863  53.2155 108.6362 0001675 113.4341 246.6828 15.08846907106235,6917.859,95.437,540.883,538.566,0.0
52863.0,STARLINK-4270,PAYLOAD,2024-05-18 15:36:26,15.08848189,0.0001703,53.2158,107.1488,116.2684,243.8483,0.00014964,2.095e-05,0.0,0 STARLINK-4270,1 52863U 22062AK  24139.65030334  .00002095  00000-0  14964-3 0  9992,2 52863  53.2158 107.1488 0001703 116.2684 243.8483 15.08848189106289,6917.855,95.437,540.898,538.542,0.0
52863.0,STARLINK-4270,PAYLOAD,2024-05-19 04:19:32,15.08821629,0.0001519,53.2167,104.773,97.0911,263.0254,0.00025249,3.731e-05,0.0,0 STARLINK-4270,1 52863U 22062AK  24140.18023463  .00003731  00000-0  25249-3 0  9993,2 52863  53.2167 104.7730 0001519  97.0911 263.0254 15.08821629106859,6917.937,95.439,540.852,538.751,0.0
52863.0,STARLINK-4270,PAYLOAD,2024-05-20 04:10:19,15.08846089,0.0001412,53.2167,100.3126,97.6288,262.4864,0.00082406,0.00012853,0.0,0 STARLINK-4270,1 52863U 22062AK  24141.17383826  .00012853  00000-0  82406-3 0  9998,2 52863  53.2167 100.3126 0001412  97.6288 262.4864 15.08846089107000,6917.862,95.437,540.704,538.75,0.0
52863.0,STARLINK-4270,PAYLOAD,2024-05-20 07:21:05,15.0885017,0.0001409,53.2167,99.7176,98.1558,261.9594,0.00082469,0.00012865,0.0,0 STARLINK-4270,1 52863U 22062AK  24141.30631722  .00012865  00000-0  82469-3 0  9996,2 52863  53.2167  99.7176 0001409  98.1558 261.9594 15.08850170106535,6917.849,95.437,540.689,538.74,0.0
52863.0,STARLINK-4270,PAYLOAD,2024-05-20 21:39:34,15.08847122,0.0001476,53.2169,97.0404,100.1769,259.939,0.00037601,5.702e-05,0.0,0 STARLINK-4270,1 52863U 22062AK  24141.90247691  .00005702  00000-0  37601-3 0  9990,2 52863  53.2169  97.0404 0001476 100.1769 259.9390 15.08847122107113,6917.859,95.437,540.745,538.703,0.0
52863.0,STARLINK-4270,PAYLOAD,2024-05-21 04:01:06,15.08837556,0.000132,53.2163,95.8514,101.9195,258.1945,3.8938e-05,3.32e-06,0.0,0 STARLINK-4270,1 52863U 22062AK  24142.16743798  .00000332  00000-0  38938-4 0  9997,2 52863  53.2163  95.8514 0001320 101.9195 258.1945 15.08837556107156,6917.888,95.438,540.666,538.84,0.0
52863.0,STARLINK-4270,PAYLOAD,2024-05-22 02:16:30,15.08844272,0.0001168,53.2159,91.6879,106.223,253.8891,0.00047605,7.297e-05,0.0,0 STARLINK-4270,1 52863U 22062AK  24143.09479925  .00007297  00000-0  47605-3 0  9995,2 52863  53.2159  91.6879 0001168 106.2230 253.8891 15.08844272106803,6917.867,95.437,540.54,538.924,0.0
52863.0,STARLINK-4270,PAYLOAD,2024-05-23 05:18:03,15.08841584,0.0001177,53.216,86.6317,109.7743,250.3376,0.00013701,1.893e-05,0.0,0 STARLINK-4270,1 52863U 22062AK  24144.22087919  .00001893  00000-0  13701-3 0  9995,2 52863  53.2160  86.6317 0001177 109.7743 250.3376 15.08841584107469,6917.876,95.437,540.555,538.926,0.0
52863.0,STARLINK-4270,PAYLOAD,2024-05-24 05:08:50,15.08849993,0.0001215,53.2167,82.1688,98.5088,261.6042,0.00025648,3.797e-05,0.0,0 STARLINK-4270,1 52863U 22062AK  24145.21447591  .00003797  00000-0  25648-3 0  9999,2 52863  53.2167  82.1688 0001215  98.5088 261.6042 15.08849993107128,6917.85,95.437,540.555,538.874,0.0
52863.0,STARLINK-4270,PAYLOAD,2024-05-24 19:27:19,15.08844625,0.000118,53.2163,79.4936,112.2301,247.8817,0.00015973,2.255e-05,0.0,0 STARLINK-4270,1 52863U 22062AK  24145.81063658  .00002255  00000-0  15973-3 0  9991,2 52863  53.2163  79.4936 0001180 112.2301 247.8817 15.08844625107709,6917.866,95.437,540.548,538.915,0.0
52863.0,STARLINK-4270,PAYLOAD,2024-05-25 04:59:38,15.08833618,0.0001342,53.2171,77.711,88.9453,271.1692,-4.6122e-05,-1.022e-05,0.0,0 STARLINK-4270,1 52863U 22062AK  24146.20808290 -.00001022  00000-0 -46122-4 0  9998,2 52863  53.2171  77.7110 0001342  88.9453 271.1692 15.08833618107767,6917.9,95.438,540.693,538.837,0.0
52863.0,STARLINK-4270,PAYLOAD,2024-05-25 12:56:33,15.08841084,0.0001223,53.2181,76.226,94.8347,265.2785,7.7539e-05,9.46e-06,0.0,0 STARLINK-4270,1 52863U 22062AK  24146.53928043  .00000946  00000-0  77539-4 0  9991,2 52863  53.2181  76.2260 0001223  94.8347 265.2785 15.08841084107329,6917.877,95.437,540.588,538.896,0.0
52863.0,STARLINK-4270,PAYLOAD,2024-05-26 04:50:25,15.08840713,0.000131,53.2162,73.2525,81.1251,278.9889,6.4501e-05,7.39e-06,0.0,0 STARLINK-4270,1 52863U 22062AK  24147.20168421  .00000739  00000-0  64501-4 0  9997,2 52863  53.2162  73.2525 0001310  81.1251 278.9889 15.08840713107424,6917.878,95.438,540.649,538.837,0.0
52863.0,STARLINK-4270,PAYLOAD,2024-05-26 22:19:40,15.08836996,0.0001457,53.2185,69.9817,108.8773,251.2377,0.0001702,2.422e-05,0.0,0 STARLINK-4270,1 52863U 22062AK  24147.93032674  .00002422  00000-0  17020-3 0  9991,2 52863  53.2185  69.9817 0001457 108.8773 251.2377 15.08836996107539,6917.89,95.438,540.763,538.747,0.0
52863.0,STARLINK-4270,PAYLOAD,2024-05-27 04:41:12,15.08838463,0.000114,53.2182,68.7946,90.6326,269.4797,0.00021633,3.157e-05,0.0,0 STARLINK-4270,1 52863U 22062AK  24148.19528351  .00003157  00000-0  21633-3 0  9993,2 52863  53.2182  68.7946 0001140  90.6326 269.4797 15.08838463107579,6917.885,95.438,540.539,538.961,0.0
